[{"OBJECT_NAME":"STARLINK-5551","OBJECT_ID":"2023-058AU","EPOCH":"2026-03-09T22:49:54.485184","MEAN_MOTION":15.01260319,"ECCENTRICITY":0.00020168,"INCLINATION":97.6043,"RA_OF_ASC_NODE":70.5298,"ARG_OF_PERICENTER":85.7867,"MEAN_ANOMALY":274.3588,"EPHEMERIS_TYPE":0,"CLASSIFICATION_TYPE":"U","NORAD_CAT_ID":56359,"ELEMENT_SET_NO":999,"REV_AT_EPOCH":15817,"BSTAR":-1.2085875e-5,"MEAN_MOTION_DOT":-2.14e-6,"MEAN_MOTION_DDOT":0},{"OBJECT_NAME":"SL-8 R\/B","OBJECT_ID":"1990-078B","EPOCH":"2026-03-09T21:52:42.731616","MEAN_MOTION":14.89068601,"ECCENTRICITY":0.03622553,"INCLINATION":82.9007,"RA_OF_ASC_NODE":251.1111,"ARG_OF_PERICENTER":13.2503,"MEAN_ANOMALY":347.792,"EPHEMERIS_TYPE":0,"CLASSIFICATION_TYPE":"U","NORAD_CAT_ID":20775,"ELEMENT_SET_NO":999,"REV_AT_EPOCH":80933,"BSTAR":0.00056464849,"MEAN_MOTION_DOT":0.0001918,"MEAN_MOTION_DDOT":0}]
